STARLINK-1509_new
1 15766C 20038AN  21326.14635037 -.00013274  00000-0 -88955-3 0  3265
2 15766  53.0538  58.0969 0001026  78.1490 158.2958 15.06406031    14
STARLINK-1509_old
1 25766C 20038AN  21325.16909113  .00005028  00000-0  33682-3 0  3257
2 25766  53.0542  62.4838 0000963  78.9499 254.8219 15.06399726    14
